{
  "type": "FeatureCollection",
  "features": [
    {
      "type": "Feature",
      "properties": {
        "norad_id": 67061,
        "name": "HULIANWANG DIGUI-121",
        "group": "last-30-days",
        "lat": -28.468520918781362,
        "lon": -44.267355754043855,
        "alt_km": 803.4719628751645,
        "timestamp": "2025-12-19T16:54:42.971087+00:00",
        "meta_object_name": "HULIANWANG DIGUI-121",
        "meta_object_id": "2025-295C",
        "meta_epoch": "2025-12-15T17:12:22.292352",
        "meta_mean_motion": 14.25729079,
        "meta_eccentricity": 0.00132682,
        "meta_inclination": 50.0012,
        "meta_ra_of_asc_node": 359.6606,
        "meta_arg_of_pericenter": 256.3366,
        "meta_mean_anomaly": 103.6071,
        "meta_ephemeris_type": 0,
        "meta_classification_type": "U",
        "meta_norad_cat_id": 67061,
        "meta_element_set_no": 999,
        "meta_rev_at_epoch": 54,
        "meta_bstar": 6.6638352e-05,
        "meta_mean_motion_dot": -1e-08,
        "meta_mean_motion_ddot": 0,
        "tle_line1": "1 67061U 25295C   25349.71692468 -.00000001  00000+0  66638-4 0  9993",
        "tle_line2": "2 67061  50.0012 359.6606 0013268 256.3366 103.6071 14.25729079   549"
      },
      "geometry": {
        "type": "Point",
        "coordinates": [
          -44.267355754043855,
          -28.468520918781362
        ]
      }
    },
    {
      "type": "Feature",
      "properties": {
        "norad_id": 67062,
        "name": "HULIANWANG DIGUI-122",
        "group": "last-30-days",
        "lat": -27.875437309087484,
        "lon": -43.53252415927873,
        "alt_km": 802.5894179439074,
        "timestamp": "2025-12-19T16:54:42.971099+00:00",
        "meta_object_name": "HULIANWANG DIGUI-122",
        "meta_object_id": "2025-295D",
        "meta_epoch": "2025-12-19T06:59:40.435008",
        "meta_mean_motion": 14.25755091,
        "meta_eccentricity": 0.00131639,
        "meta_inclination": 50.0054,
        "meta_ra_of_asc_node": 344.5736,
        "meta_arg_of_pericenter": 276.2751,
        "meta_mean_anomaly": 83.6663,
        "meta_ephemeris_type": 0,
        "meta_classification_type": "U",
        "meta_norad_cat_id": 67062,
        "meta_element_set_no": 999,
        "meta_rev_at_epoch": 105,
        "meta_bstar": 0.00012634679,
        "meta_mean_motion_dot": 1.42e-06,
        "meta_mean_motion_ddot": 0,
        "tle_line1": "1 67062U 25295D   25353.29144022  .00000142  00000+0  12635-3 0  9992",
        "tle_line2": "2 67062  50.0054 344.5736 0013163 276.2751  83.6663 14.25755091  1050"
      },
      "geometry": {
        "type": "Point",
        "coordinates": [
          -43.53252415927873,
          -27.875437309087484
        ]
      }
    },
    {
      "type": "Feature",
      "properties": {
        "norad_id": 67063,
        "name": "HULIANWANG DIGUI-123",
        "group": "last-30-days",
        "lat": -25.31528715284374,
        "lon": -40.572281617582476,
        "alt_km": 802.8161322544602,
        "timestamp": "2025-12-19T16:54:42.971109+00:00",
        "meta_object_name": "HULIANWANG DIGUI-123",
        "meta_object_id": "2025-295E",
        "meta_epoch": "2025-12-19T06:58:41.889504",
        "meta_mean_motion": 14.25887937,
        "meta_eccentricity": 0.00124788,
        "meta_inclination": 50.0061,
        "meta_ra_of_asc_node": 344.5724,
        "meta_arg_of_pericenter": 275.4776,
        "meta_mean_anomaly": 84.4715,
        "meta_ephemeris_type": 0,
        "meta_classification_type": "U",
        "meta_norad_cat_id": 67063,
        "meta_element_set_no": 999,
        "meta_rev_at_epoch": 105,
        "meta_bstar": 0.00012851761,
        "meta_mean_motion_dot": 1.48e-06,
        "meta_mean_motion_ddot": 0,
        "tle_line1": "1 67063U 25295E   25353.29076261  .00000148  00000+0  12852-3 0  9999",
        "tle_line2": "2 67063  50.0061 344.5724 0012478 275.4776  84.4715 14.25887937  1054"
      },
      "geometry": {
        "type": "Point",
        "coordinates": [
          -40.572281617582476,
          -25.31528715284374
        ]
      }
    },
    {
      "type": "Feature",
      "properties": {
        "norad_id": 67064,
        "name": "HULIANWANG DIGUI-124",
        "group": "last-30-days",
        "lat": -24.12862424510913,
        "lon": -39.28282194309725,
        "alt_km": 803.5762804229889,
        "timestamp": "2025-12-19T16:54:42.971121+00:00",
        "meta_object_name": "HULIANWANG DIGUI-124",
        "meta_object_id": "2025-295F",
        "meta_epoch": "2025-12-18T00:41:45.177504",
        "meta_mean_motion": 14.25947801,
        "meta_eccentricity": 0.0012069,
        "meta_inclination": 50.0037,
        "meta_ra_of_asc_node": 349.8867,
        "meta_arg_of_pericenter": 265.6344,
        "meta_mean_anomaly": 94.3191,
        "meta_ephemeris_type": 0,
        "meta_classification_type": "U",
        "meta_norad_cat_id": 67064,
        "meta_element_set_no": 999,
        "meta_rev_at_epoch": 87,
        "meta_bstar": -0.00021481981,
        "meta_mean_motion_dot": -6.76e-06,
        "meta_mean_motion_ddot": 0,
        "tle_line1": "1 67064U 25295F   25352.02899511 -.00000676  00000+0 -21482-3 0  9998",
        "tle_line2": "2 67064  50.0037 349.8867 0012069 265.6344  94.3191 14.25947801   876"
      },
      "geometry": {
        "type": "Point",
        "coordinates": [
          -39.28282194309725,
          -24.12862424510913
        ]
      }
    },
    {
      "type": "Feature",
      "properties": {
        "norad_id": 67065,
        "name": "HULIANWANG DIGUI-125",
        "group": "last-30-days",
        "lat": -24.03518112614239,
        "lon": -39.18394357711155,
        "alt_km": 802.7290374145423,
        "timestamp": "2025-12-19T16:54:42.971131+00:00",
        "meta_object_name": "HULIANWANG DIGUI-125",
        "meta_object_id": "2025-295G",
        "meta_epoch": "2025-12-19T06:58:13.139040",
        "meta_mean_motion": 14.25953582,
        "meta_eccentricity": 0.00122757,
        "meta_inclination": 50.0011,
        "meta_ra_of_asc_node": 344.5559,
        "meta_arg_of_pericenter": 276.1084,
        "meta_mean_anomaly": 83.8431,
        "meta_ephemeris_type": 0,
        "meta_classification_type": "U",
        "meta_norad_cat_id": 67065,
        "meta_element_set_no": 999,
        "meta_rev_at_epoch": 105,
        "meta_bstar": 0.00012070897,
        "meta_mean_motion_dot": 1.3e-06,
        "meta_mean_motion_ddot": 0,
        "tle_line1": "1 67065U 25295G   25353.29042985  .00000130  00000+0  12071-3 0  9991",
        "tle_line2": "2 67065  50.0011 344.5559 0012275 276.1084  83.8431 14.25953582  1050"
      },
      "geometry": {
        "type": "Point",
        "coordinates": [
          -39.18394357711155,
          -24.03518112614239
        ]
      }
    },
    {
      "type": "Feature",
      "properties": {
        "norad_id": 67066,
        "name": "HULIANWANG DIGUI-126",
        "group": "last-30-days",
        "lat": -21.11900532862064,
        "lon": -36.12562327961239,
        "alt_km": 803.1924605091554,
        "timestamp": "2025-12-19T16:54:42.971143+00:00",
        "meta_object_name": "HULIANWANG DIGUI-126",
        "meta_object_id": "2025-295H",
        "meta_epoch": "2025-12-19T06:57:08.510112",
        "meta_mean_motion": 14.26096542,
        "meta_eccentricity": 0.00114375,
        "meta_inclination": 50.0014,
        "meta_ra_of_asc_node": 344.5512,
        "meta_arg_of_pericenter": 273.2525,
        "meta_mean_anomaly": 86.708,
        "meta_ephemeris_type": 0,
        "meta_classification_type": "U",
        "meta_norad_cat_id": 67066,
        "meta_element_set_no": 999,
        "meta_rev_at_epoch": 105,
        "meta_bstar": 0.00011915752,
        "meta_mean_motion_dot": 1.27e-06,
        "meta_mean_motion_ddot": 0,
        "tle_line1": "1 67066U 25295H   25353.28968183  .00000127  00000+0  11916-3 0  9991",
        "tle_line2": "2 67066  50.0014 344.5512 0011437 273.2525  86.7080 14.26096542  1057"
      },
      "geometry": {
        "type": "Point",
        "coordinates": [
          -36.12562327961239,
          -21.11900532862064
        ]
      }
    },
    {
      "type": "Feature",
      "properties": {
        "norad_id": 67067,
        "name": "HULIANWANG DIGUI-127",
        "group": "last-30-days",
        "lat": -18.36832101285358,
        "lon": -33.387991391283684,
        "alt_km": 802.6347225892168,
        "timestamp": "2025-12-19T16:54:42.971154+00:00",
        "meta_object_name": "HULIANWANG DIGUI-127",
        "meta_object_id": "2025-295J",
        "meta_epoch": "2025-12-19T00:12:34.067232",
        "meta_mean_motion": 14.26249922,
        "meta_eccentricity": 0.00108646,
        "meta_inclination": 50.0053,
        "meta_ra_of_asc_node": 345.7393,
        "meta_arg_of_pericenter": 276.2667,
        "meta_mean_anomaly": 83.701,
        "meta_ephemeris_type": 0,
        "meta_classification_type": "U",
        "meta_norad_cat_id": 67067,
        "meta_element_set_no": 999,
        "meta_rev_at_epoch": 101,
        "meta_bstar": -0.00028493863,
        "meta_mean_motion_dot": -8.49e-06,
        "meta_mean_motion_ddot": 0,
        "tle_line1": "1 67067U 25295J   25353.00872763 -.00000849  00000+0 -28494-3 0  9992",
        "tle_line2": "2 67067  50.0053 345.7393 0010864 276.2667  83.7010 14.26249922  1012"
      },
      "geometry": {
        "type": "Point",
        "coordinates": [
          -33.387991391283684,
          -18.36832101285358
        ]
      }
    }
  ]
}